{
  "type": "FeatureCollection",
  "features": [
    {
      "type": "Feature",
      "properties": {
        "norad_id": 55973,
        "name": "TIANMU-1 03",
        "group": "weather",
        "lat": -72.39544427513938,
        "lon": 179.10221797060694,
        "alt_km": 451.7367422303196,
        "timestamp": "2025-12-17T17:50:18.895398+00:00",
        "meta_object_name": "TIANMU-1 03",
        "meta_object_id": "2023-039A",
        "meta_epoch": "2025-12-17T08:48:32.930784",
        "meta_mean_motion": 15.41058669,
        "meta_eccentricity": 0.00041898,
        "meta_inclination": 97.5101,
        "meta_ra_of_asc_node": 154.1479,
        "meta_arg_of_pericenter": 48.0796,
        "meta_mean_anomaly": 312.0807,
        "meta_ephemeris_type": 0,
        "meta_classification_type": "U",
        "meta_norad_cat_id": 55973,
        "meta_element_set_no": 999,
        "meta_rev_at_epoch": 15277,
        "meta_bstar": 0.00029805236,
        "meta_mean_motion_dot": 0.00012234,
        "meta_mean_motion_ddot": 0,
        "tle_line1": "1 55973U 23039A   25351.36704781  .00012234  00000+0  29805-3 0  9996",
        "tle_line2": "2 55973  97.5101 154.1479 0004189  48.0796 312.0807 15.41058669152779"
      },
      "geometry": {
        "type": "Point",
        "coordinates": [
          179.10221797060694,
          -72.39544427513938
        ]
      }
    },
    {
      "type": "Feature",
      "properties": {
        "norad_id": 55974,
        "name": "TIANMU-1 04",
        "group": "weather",
        "lat": 45.51067818282983,
        "lon": 146.01254159114757,
        "alt_km": 434.7972381409336,
        "timestamp": "2025-12-17T17:50:18.895409+00:00",
        "meta_object_name": "TIANMU-1 04",
        "meta_object_id": "2023-039B",
        "meta_epoch": "2025-12-17T08:17:29.717376",
        "meta_mean_motion": 15.41397071,
        "meta_eccentricity": 0.00048523,
        "meta_inclination": 97.5033,
        "meta_ra_of_asc_node": 153.3148,
        "meta_arg_of_pericenter": 42.3228,
        "meta_mean_anomaly": 317.8392,
        "meta_ephemeris_type": 0,
        "meta_classification_type": "U",
        "meta_norad_cat_id": 55974,
        "meta_element_set_no": 999,
        "meta_rev_at_epoch": 15277,
        "meta_bstar": 0.00031012399,
        "meta_mean_motion_dot": 0.00012879,
        "meta_mean_motion_ddot": 0,
        "tle_line1": "1 55974U 23039B   25351.34548284  .00012879  00000+0  31012-3 0  9997",
        "tle_line2": "2 55974  97.5033 153.3148 0004852  42.3228 317.8392 15.41397071152777"
      },
      "geometry": {
        "type": "Point",
        "coordinates": [
          146.01254159114757,
          45.51067818282983
        ]
      }
    },
    {
      "type": "Feature",
      "properties": {
        "norad_id": 55975,
        "name": "TIANMU-1 05",
        "group": "weather",
        "lat": 69.72270059709466,
        "lon": 133.30162623111042,
        "alt_km": 433.46764206358785,
        "timestamp": "2025-12-17T17:50:18.895420+00:00",
        "meta_object_name": "TIANMU-1 05",
        "meta_object_id": "2023-039C",
        "meta_epoch": "2025-12-17T08:10:50.931264",
        "meta_mean_motion": 15.41014901,
        "meta_eccentricity": 0.00042451,
        "meta_inclination": 97.508,
        "meta_ra_of_asc_node": 153.8027,
        "meta_arg_of_pericenter": 65.8693,
        "meta_mean_anomaly": 294.2996,
        "meta_ephemeris_type": 0,
        "meta_classification_type": "U",
        "meta_norad_cat_id": 55975,
        "meta_element_set_no": 999,
        "meta_rev_at_epoch": 15275,
        "meta_bstar": 0.00030750342,
        "meta_mean_motion_dot": 0.00012607,
        "meta_mean_motion_ddot": 0,
        "tle_line1": "1 55975U 23039C   25351.34086726  .00012607  00000+0  30750-3 0  9993",
        "tle_line2": "2 55975  97.5080 153.8027 0004245  65.8693 294.2996 15.41014901152757"
      },
      "geometry": {
        "type": "Point",
        "coordinates": [
          133.30162623111042,
          69.72270059709466
        ]
      }
    },
    {
      "type": "Feature",
      "properties": {
        "norad_id": 55976,
        "name": "TIANMU-1 06",
        "group": "weather",
        "lat": 34.51178171744303,
        "lon": 149.48167528384312,
        "alt_km": 436.81802107589374,
        "timestamp": "2025-12-17T17:50:18.895430+00:00",
        "meta_object_name": "TIANMU-1 06",
        "meta_object_id": "2023-039D",
        "meta_epoch": "2025-12-17T08:20:24.260064",
        "meta_mean_motion": 15.41448709,
        "meta_eccentricity": 0.0004535,
        "meta_inclination": 97.509,
        "meta_ra_of_asc_node": 154.2784,
        "meta_arg_of_pericenter": 60.334,
        "meta_mean_anomaly": 299.8358,
        "meta_ephemeris_type": 0,
        "meta_classification_type": "U",
        "meta_norad_cat_id": 55976,
        "meta_element_set_no": 999,
        "meta_rev_at_epoch": 15277,
        "meta_bstar": 0.00030611995,
        "meta_mean_motion_dot": 0.00012733,
        "meta_mean_motion_ddot": 0,
        "tle_line1": "1 55976U 23039D   25351.34750301  .00012733  00000+0  30612-3 0  9998",
        "tle_line2": "2 55976  97.5090 154.2784 0004535  60.3340 299.8358 15.41448709152777"
      },
      "geometry": {
        "type": "Point",
        "coordinates": [
          149.48167528384312,
          34.51178171744303
        ]
      }
    },
    {
      "type": "Feature",
      "properties": {
        "norad_id": 56232,
        "name": "FENGYUN 3G",
        "group": "weather",
        "lat": 12.875228188745027,
        "lon": -147.30329723161796,
        "alt_km": 409.6755340462223,
        "timestamp": "2025-12-17T17:50:18.895441+00:00",
        "meta_object_name": "FENGYUN 3G",
        "meta_object_id": "2023-055A",
        "meta_epoch": "2025-12-17T06:57:46.541664",
        "meta_mean_motion": 15.53917827,
        "meta_eccentricity": 0.00093563,
        "meta_inclination": 49.9924,
        "meta_ra_of_asc_node": 203.9687,
        "meta_arg_of_pericenter": 169.2779,
        "meta_mean_anomaly": 190.839,
        "meta_ephemeris_type": 0,
        "meta_classification_type": "U",
        "meta_norad_cat_id": 56232,
        "meta_element_set_no": 999,
        "meta_rev_at_epoch": 15173,
        "meta_bstar": 0.00039266245,
        "meta_mean_motion_dot": 0.00025481,
        "meta_mean_motion_ddot": 0,
        "tle_line1": "1 56232U 23055A   25351.29012201  .00025481  00000+0  39266-3 0  9994",
        "tle_line2": "2 56232  49.9924 203.9687 0009356 169.2779 190.8390 15.53917827151731"
      },
      "geometry": {
        "type": "Point",
        "coordinates": [
          -147.30329723161796,
          12.875228188745027
        ]
      }
    },
    {
      "type": "Feature",
      "properties": {
        "norad_id": 57166,
        "name": "METEOR-M2 3",
        "group": "weather",
        "lat": -36.31510438350623,
        "lon": 51.60941882897475,
        "alt_km": 815.7994421733247,
        "timestamp": "2025-12-17T17:50:18.895453+00:00",
        "meta_object_name": "METEOR-M2 3",
        "meta_object_id": "2023-091A",
        "meta_epoch": "2025-12-17T07:53:34.886400",
        "meta_mean_motion": 14.2402658,
        "meta_eccentricity": 0.00036431,
        "meta_inclination": 98.6374,
        "meta_ra_of_asc_node": 44.788,
        "meta_arg_of_pericenter": 355.3483,
        "meta_mean_anomaly": 4.7662,
        "meta_ephemeris_type": 0,
        "meta_classification_type": "U",
        "meta_norad_cat_id": 57166,
        "meta_element_set_no": 999,
        "meta_rev_at_epoch": 12863,
        "meta_bstar": 1.8607976e-05,
        "meta_mean_motion_dot": -1e-08,
        "meta_mean_motion_ddot": 0,
        "tle_line1": "1 57166U 23091A   25351.32887600 -.00000001  00000+0  18608-4 0  9998",
        "tle_line2": "2 57166  98.6374  44.7880 0003643 355.3483   4.7662 14.24026580128639"
      },
      "geometry": {
        "type": "Point",
        "coordinates": [
          51.60941882897475,
          -36.31510438350623
        ]
      }
    },
    {
      "type": "Feature",
      "properties": {
        "norad_id": 57399,
        "name": "TIANMU-1 07",
        "group": "weather",
        "lat": -41.692815472410985,
        "lon": -145.0623622509951,
        "alt_km": 491.37082863935393,
        "timestamp": "2025-12-17T17:50:18.895466+00:00",
        "meta_object_name": "TIANMU-1 07",
        "meta_object_id": "2023-101A",
        "meta_epoch": "2025-12-17T07:26:27.673728",
        "meta_mean_motion": 15.28137251,
        "meta_eccentricity": 0.00054459,
        "meta_inclination": 97.2877,
        "meta_ra_of_asc_node": 41.0594,
        "meta_arg_of_pericenter": 70.1337,
        "meta_mean_anomaly": 290.0489,
        "meta_ephemeris_type": 0,
        "meta_classification_type": "U",
        "meta_norad_cat_id": 57399,
        "meta_element_set_no": 999,
        "meta_rev_at_epoch": 13385,
        "meta_bstar": 0.00022055074,
        "meta_mean_motion_dot": 5.979e-05,
        "meta_mean_motion_ddot": 0,
        "tle_line1": "1 57399U 23101A   25351.31004252  .00005979  00000+0  22055-3 0  9999",
        "tle_line2": "2 57399  97.2877  41.0594 0005445  70.1337 290.0489 15.28137251133854"
      },
      "geometry": {
        "type": "Point",
        "coordinates": [
          -145.0623622509951,
          -41.692815472410985
        ]
      }
    }
  ]
}